API VERSION: 1.0
API SOURCE: NASA/JPL Horizons API

*******************************************************************************
JPL/HORIZONS                 152667 (1998 FR11)            2024-Jun-26 06:31:02
Rec #:  152667 (+COV) Soln.date: 2024-Apr-26_15:28:46    # obs: 315 (1956-2023)
 
IAU76/J2000 helio. ecliptic osc. elements (au, days, deg., period=Julian yrs):
 
  EPOCH=  2457768.5 ! 2017-Jan-15.00 (TDB)         Residual RMS= .19659
   EC= .7061286851441877   QR= .826607154260795    TP= 2457880.4981784783
   OM= 129.9124708485939   W=  158.5167491360426   IN= 6.660487611509641
   A= 2.812820144308297    MA= 336.6007418989854   ADIST= 4.799033134355799
   PER= 4.7176             N= .208925345           ANGMOM= .02042852
   DAN= 4.1125             DDN= .8510799999999999  L= 288.5611197
   B= 2.4345076            MOID= .0630347          TP= 2017-May-06.9981784783
 
Asteroid physical parameters (km, seconds, rotational period in hours):
   GM= n.a.                RAD= n.a.               ROTPER= n.a.
   H= 16.42                G= .150                 B-V= n.a.
                           ALBEDO= n.a.            STYP= n.a.

ASTEROID comments: 
1: soln ref.= JPL#85, OCC=0
2: source=ORB
*******************************************************************************


*******************************************************************************
Ephemeris / WWW_USER Wed Jun 26 06:31:02 2024 Pasadena, USA      / Horizons
*******************************************************************************
Target body name: 152667 (1998 FR11)              {source: JPL#85}
Center body name: Sun (10)                        {source: DE441}
Center-site name: BODY CENTER
*******************************************************************************
Start time      : A.D. 2024-Jan-01 00:00:00.0000 TDB
Stop  time      : A.D. 2044-Jan-01 00:00:00.0000 TDB
Step-size       : 1440 minutes
*******************************************************************************
Center geodetic : 0.0, 0.0, 0.0                   {E-lon(deg),Lat(deg),Alt(km)}
Center cylindric: 0.0, 0.0, 0.0                   {E-lon(deg),Dxy(km),Dz(km)}
Center radii    : 695700.0, 695700.0, 695700.0 km {Equator_a, b, pole_c}
Small perturbers: Yes                             {source: SB441-N16}
Output units    : KM-S
Calendar mode   : Mixed Julian/Gregorian
Output type     : GEOMETRIC cartesian states
Output format   : 3 (position, velocity, LT, range, range-rate)
Reference frame : Ecliptic of J2000.0
*******************************************************************************
Initial IAU76/J2000 heliocentric ecliptic osculating elements (au, days, deg.):
  EPOCH=  2457768.5 ! 2017-Jan-15.00 (TDB)         Residual RMS= .19659        
   EC= .7061286851441877   QR= .826607154260795    TP= 2457880.4981784783      
   OM= 129.9124708485939   W=  158.5167491360426   IN= 6.660487611509641       
  Equivalent ICRF heliocentric cartesian coordinates (au, au/d):
   X=-1.737638985843947E+00  Y=-1.313850817859304E-01  Z= 1.186627637564590E-01
  VX= 1.035819610753615E-02 VY=-1.027838068819277E-02 VZ=-4.549551487342619E-03
Asteroid physical parameters (km, seconds, rotational period in hours):        
   GM= n.a.                RAD= n.a.               ROTPER= n.a.                
   H= 16.42                G= .150                 B-V= n.a.                   
                           ALBEDO= n.a.            STYP= n.a.                  
*******************************************************************************
JDTDB
   X     Y     Z
   VX    VY    VZ
   LT    RG    RR
*******************************************************************************
$$SOE
2467345.500000000 = A.D. 2043-Apr-06 00:00:00.0000 TDB 
 X =-2.213087007011546E+08 Y = 6.848187122613707E+08 Z =-3.068730851782417E+07
 VX=-7.160340635899392E+00 VY=-1.943657118151535E+00 VZ= 8.089830165470278E-01
 LT= 2.402809969831184E+03 RG= 7.203443069625964E+08 RR= 3.175806407474153E-01
2467346.500000000 = A.D. 2043-Apr-07 00:00:00.0000 TDB 
 X =-2.219270604002695E+08 Y = 6.846498734784729E+08 Z =-3.061737175068784E+07
 VX=-7.153538260643799E+00 VY=-1.964646776770888E+00 VZ= 8.099232559225878E-01
 LT= 2.402899274942771E+03 RG= 7.203710799615110E+08 RR= 3.021648635519599E-01
2467347.500000000 = A.D. 2043-Apr-08 00:00:00.0000 TDB 
 X =-2.225448315893619E+08 Y = 6.844792215159780E+08 Z =-3.054735384380513E+07
 VX=-7.146717717579184E+00 VY=-1.985628878717848E+00 VZ= 8.108612520842507E-01
 LT= 2.402984137372402E+03 RG= 7.203965210778819E+08 RR= 2.867500190814364E-01
2467348.500000000 = A.D. 2043-Apr-09 00:00:00.0000 TDB 
 X =-2.231620126984246E+08 Y = 6.843067570240092E+08 Z =-3.047725499081945E+07
 VX=-7.139878999387103E+00 VY=-2.006603488380777E+00 VZ= 8.117970089390372E-01
 LT= 2.403064557382566E+03 RG= 7.204206303904016E+08 RR= 2.713360632265302E-01
2467349.500000000 = A.D. 2043-Apr-10 00:00:00.0000 TDB 
 X =-2.237786021567695E+08 Y = 6.841324806470799E+08 Z =-3.040707538504571E+07
 VX=-7.133022097596616E+00 VY=-2.027570671185285E+00 VZ= 8.127305301874932E-01
 LT= 2.403140535222847E+03 RG= 7.204434079738927E+08 RR= 2.559229505724158E-01
2467350.500000000 = A.D. 2043-Apr-11 00:00:00.0000 TDB 
 X =-2.243945983929234E+08 Y = 6.839563930240163E+08 Z =-3.033681521948728E+07
 VX=-7.126147002500482E+00 VY=-2.048530493316520E+00 VZ= 8.136618193387752E-01
 LT= 2.403212071129577E+03 RG= 7.204648538992068E+08 RR= 2.405106346330725E-01
2467351.500000000 = A.D. 2043-Apr-12 00:00:00.0000 TDB 
 X =-2.250099998345199E+08 Y = 6.837784947879016E+08 Z =-3.026647468685201E+07
 VX=-7.119253703135165E+00 VY=-2.069483021463027E+00 VZ= 8.145908797298157E-01
 LT= 2.403279165325567E+03 RG= 7.204849682331402E+08 RR= 2.250990680839279E-01
2467352.500000000 = A.D. 2043-Apr-13 00:00:00.0000 TDB 
 X =-2.256248049081922E+08 Y = 6.835987865660454E+08 Z =-3.019605397956640E+07
 VX=-7.112342187310226E+00 VY=-2.090428322598410E+00 VZ= 8.155177145459258E-01
 LT= 2.403341818019896E+03 RG= 7.205037510383734E+08 RR= 2.096882029734779E-01
2467353.500000000 = A.D. 2043-Apr-14 00:00:00.0000 TDB 
 X =-2.262390120394694E+08 Y = 6.834172689799628E+08 Z =-3.012555328978699E+07
 VX=-7.105412441668376E+00 VY=-2.111366463800489E+00 VZ= 8.164423268411406E-01
 LT= 2.403400029407751E+03 RG= 7.205212023734220E+08 RR= 1.942779909088051E-01
2467354.500000000 = A.D. 2043-Apr-15 00:00:00.0000 TDB 
 X =-2.268526196526787E+08 Y = 6.832339426453758E+08 Z =-3.005497280941203E+07
 VX=-7.098464451765507E+00 VY=-2.132297512108265E+00 VZ= 8.173647195573026E-01
 LT= 2.403453799670332E+03 RG= 7.205373222926084E+08 RR= 1.788683832116041E-01
2467355.500000000 = A.D. 2043-Apr-16 00:00:00.0000 TDB 
 X =-2.274656261708558E+08 Y = 6.830488081722192E+08 Z =-2.998431273008934E+07
 VX=-7.091498202159928E+00 VY=-2.153221534412304E+00 VZ= 8.182848955412592E-01
 LT= 2.403503128974781E+03 RG= 7.205521108460404E+08 RR= 1.634593310457652E-01
2467356.500000000 = A.D. 2043-Apr-17 00:00:00.0000 TDB 
 X =-2.280780300156625E+08 Y = 6.828618661646581E+08 Z =-2.991357324322459E+07
 VX=-7.084513676503938E+00 VY=-2.174138597374989E+00 VZ= 8.192028575598305E-01
 LT= 2.403548017474156E+03 RG= 7.205655680796040E+08 RR= 1.480507855177989E-01
2467357.500000000 = A.D. 2043-Apr-18 00:00:00.0000 TDB 
 X =-2.286898296073118E+08 Y = 6.826731172211099E+08 Z =-2.984275453998739E+07
 VX=-7.077510857631801E+00 VY=-2.195048767375414E+00 VZ= 8.201186083124342E-01
 LT= 2.403588465307427E+03 RG= 7.205776940349615E+08 RR= 1.326426977532918E-01
2467358.500000000 = A.D. 2043-Apr-19 00:00:00.0000 TDB 
 X =-2.293010233645017E+08 Y = 6.824825619342701E+08 Z =-2.977185681131655E+07
 VX=-7.070489727642348E+00 VY=-2.215952110473313E+00 VZ= 8.210321504416600E-01
 LT= 2.403624472599488E+03 RG= 7.205884887495540E+08 RR= 1.172350189541154E-01
2467359.500000000 = A.D. 2043-Apr-20 00:00:00.0000 TDB 
 X =-2.299116097043542E+08 Y = 6.822902008911418E+08 Z =-2.970088024792472E+07
 VX=-7.063450267973349E+00 VY=-2.236848692388863E+00 VZ= 8.219434865417959E-01
 LT= 2.403656039461182E+03 RG= 7.205979522566127E+08 RR= 1.018277004384966E-01
2467360.500000000 = A.D. 2043-Apr-21 00:00:00.0000 TDB 
 X =-2.305215870423615E+08 Y = 6.820960346730645E+08 Z =-2.962982504030216E+07
 VX=-7.056392459467492E+00 VY=-2.257738578493618E+00 VZ= 8.228526191656713E-01
 LT= 2.403683165989346E+03 RG= 7.206060845851681E+08 RR= 8.642069366832722E-02
2467361.500000000 = A.D. 2043-Apr-22 00:00:00.0000 TDB 
 X =-2.311309537923370E+08 Y = 6.819000638557444E+08 Z =-2.955869137872040E+07
 VX=-7.049316282430091E+00 VY=-2.278621833810226E+00 VZ= 8.237595508300285E-01
 LT= 2.403705852266849E+03 RG= 7.206128857600634E+08 RR= 7.101395026595715E-02
2467362.500000000 = A.D. 2043-Apr-23 00:00:00.0000 TDB 
 X =-2.317397083663709E+08 Y = 6.817022890092857E+08 Z =-2.948747945323482E+07
 VX=-7.042221716678537E+00 VY=-2.299498523017894E+00 VZ= 8.246642840196663E-01
 LT= 2.403724098362643E+03 RG= 7.206183558019705E+08 RR= 5.560742202326520E-02
2467363.500000000 = A.D. 2043-Apr-24 00:00:00.0000 TDB 
 X =-2.323478491747904E+08 Y = 6.815027106982174E+08 Z =-2.941618945368716E+07
 VX=-7.035108741584563E+00 VY=-2.320368710462110E+00 VZ= 8.255668211905745E-01
 LT= 2.403737904331810E+03 RG= 7.206224947274020E+08 RR= 4.020106090474234E-02
2467364.500000000 = A.D. 2043-Apr-25 00:00:00.0000 TDB 
 X =-2.329553746261221E+08 Y = 6.813013294815243E+08 Z =-2.934482156970841E+07
 VX=-7.027977336109825E+00 VY=-2.341232460166854E+00 VZ= 8.264671647722596E-01
 LT= 2.403747270215614E+03 RG= 7.206253025487293E+08 RR= 2.479481904635169E-02
2467365.500000000 = A.D. 2043-Apr-26 00:00:00.0000 TDB 
 X =-2.335622831270587E+08 Y = 6.810981459126722E+08 Z =-2.927337599072060E+07
 VX=-7.020827478835813E+00 VY=-2.362089835848272E+00 VZ= 8.273653171694219E-01
 LT= 2.403752196041550E+03 RG= 7.206267792741940E+08 RR= 9.388648751423381E-03
